ONEWEB-0405             
1 50485U 21132S   26111.37686163  .00000045  00000+0  81166-4 0  9996
2 50485  87.9213 346.7361 0001515  66.3789 293.7502 13.18684309214508
ONEWEB-0406             
1 50486U 21132T   26111.36697358  .00000066  00000+0  13488-3 0  9998
2 50486  87.9205 346.7597 0001387  99.3616 260.7673 13.18687941214130
ONEWEB-0407             
1 50487U 21132U   26111.36037039  .00000008  00000+0 -12384-4 0  9995
2 50487  87.9222 346.7485 0001949  79.5907 280.5445 13.18685118214077
ONEWEB-0409             
1 50488U 21132V   26111.48871406 -.00000328  00000+0 -96157-3 0  9998
2 50488  87.8928  32.3234 0001552  81.6320 278.4984 13.11416137208155
ONEWEB-0412             
1 50489U 21132W   26111.34882391  .00000128  00000+0  29284-3 0  9992
2 50489  87.9206 346.7619 0002049  86.0399 274.0967 13.18685422214165
ONEWEB-0413             
1 50490U 21132X   26111.35377558  .00000045  00000+0  81774-4 0  9990
2 50490  87.9201 346.7631 0002098  82.4361 277.7010 13.18685557214101
ONEWEB-0414             
1 50491U 21132Y   26111.41480742  .00000164  00000+0  38289-3 0  9992
2 50491  87.9216 346.7272 0001822  86.8380 273.2960 13.18684199214142
ONEWEB-0417             
1 50492U 21132Z   26111.34717419  .00000030  00000+0  42174-4 0  9990
2 50492  87.9204 346.7651 0001626  87.2459 272.8859 13.18684813214117
ONEWEB-0418             
1 50493U 21132AA  26111.35692551  .00000017  00000+0  10757-4 0  9998
2 50493  87.9223 346.7570 0001423  91.5322 268.5974 13.18684713214176
ONEWEB-0419             
1 50494U 21132AB  26111.37520433  .00000043  00000+0  76229-4 0  9995
2 50494  87.9214 346.7532 0001552  79.5560 280.5747 13.18683768214090
ONEWEB-0420             
1 50495U 21132AC  26111.34056863  .00000203  00000+0  48182-3 0  9998
2 50495  87.9208 346.7684 0001930  77.8207 282.3141 13.18684076214081
ONEWEB-0421             
1 50496U 21132AD  26111.40986251 -.00000039  00000+0 -13289-3 0  9998
2 50496  87.9209 346.7496 0001948  92.5156 267.6199 13.18685733214136
ONEWEB-0424             
1 50497U 21132AE  26111.37026587  .00000034  00000+0  53574-4 0  9997
2 50497  87.9216 346.7533 0001556  74.0911 286.0392 13.18685357214150
ONEWEB-0426             
1 50498U 21132AF  26111.40650882 -.00000019  00000+0 -81567-4 0  9991
2 50498  87.9210 346.7381 0001805 106.3418 253.7912 13.18690455214103
ONEWEB-0427             
1 50499U 21132AG  26111.36861686  .00000080  00000+0  17010-3 0  9990
2 50499  87.9215 346.7327 0001597  88.2378 271.8937 13.18684616214122
ONEWEB-0429             
1 50500U 21132AH  26111.35542522  .00000033  00000+0  49857-4 0  9990
2 50500  87.9210 346.7646 0001884  79.8215 280.3129 13.18686722214093
