[{"OBJECT_NAME":"ONEWEB-0405","OBJECT_ID":"2021-132S","EPOCH":"2026-04-21T09:02:40.844832","MEAN_MOTION":13.18684309,"ECCENTRICITY":0.0001515,"INCLINATION":87.9213,"RA_OF_ASC_NODE":346.7361,"ARG_OF_PERICENTER":66.3789,"MEAN_ANOMALY":293.7502,"EPHEMERIS_TYPE":0,"CLASSIFICATION_TYPE":"U","NORAD_CAT_ID":50485,"ELEMENT_SET_NO":999,"REV_AT_EPOCH":21450,"BSTAR":8.116600000000002e-05,"MEAN_MOTION_DOT":4.5e-07,"MEAN_MOTION_DDOT":0.0},{"OBJECT_NAME":"ONEWEB-0406","OBJECT_ID":"2021-132T","EPOCH":"2026-04-21T08:48:26.517312","MEAN_MOTION":13.18687941,"ECCENTRICITY":0.0001387,"INCLINATION":87.9205,"RA_OF_ASC_NODE":346.7597,"ARG_OF_PERICENTER":99.3616,"MEAN_ANOMALY":260.7673,"EPHEMERIS_TYPE":0,"CLASSIFICATION_TYPE":"U","NORAD_CAT_ID":50486,"ELEMENT_SET_NO":999,"REV_AT_EPOCH":21413,"BSTAR":0.00013488,"MEAN_MOTION_DOT":6.6e-07,"MEAN_MOTION_DDOT":0.0},{"OBJECT_NAME":"ONEWEB-0407","OBJECT_ID":"2021-132U","EPOCH":"2026-04-21T08:38:56.001696","MEAN_MOTION":13.18685118,"ECCENTRICITY":0.0001949,"INCLINATION":87.9222,"RA_OF_ASC_NODE":346.7485,"ARG_OF_PERICENTER":79.5907,"MEAN_ANOMALY":280.5445,"EPHEMERIS_TYPE":0,"CLASSIFICATION_TYPE":"U","NORAD_CAT_ID":50487,"ELEMENT_SET_NO":999,"REV_AT_EPOCH":21407,"BSTAR":-1.2384e-05,"MEAN_MOTION_DOT":8e-08,"MEAN_MOTION_DDOT":0.0},{"OBJECT_NAME":"ONEWEB-0409","OBJECT_ID":"2021-132V","EPOCH":"2026-04-21T11:43:44.894784","MEAN_MOTION":13.11416137,"ECCENTRICITY":0.0001552,"INCLINATION":87.8928,"RA_OF_ASC_NODE":32.3234,"ARG_OF_PERICENTER":81.632,"MEAN_ANOMALY":278.4984,"EPHEMERIS_TYPE":0,"CLASSIFICATION_TYPE":"U","NORAD_CAT_ID":50488,"ELEMENT_SET_NO":999,"REV_AT_EPOCH":20815,"BSTAR":-0.00096157,"MEAN_MOTION_DOT":-3.28e-06,"MEAN_MOTION_DDOT":0.0},{"OBJECT_NAME":"ONEWEB-0412","OBJECT_ID":"2021-132W","EPOCH":"2026-04-21T08:22:18.385824","MEAN_MOTION":13.18685422,"ECCENTRICITY":0.0002049,"INCLINATION":87.9206,"RA_OF_ASC_NODE":346.7619,"ARG_OF_PERICENTER":86.0399,"MEAN_ANOMALY":274.0967,"EPHEMERIS_TYPE":0,"CLASSIFICATION_TYPE":"U","NORAD_CAT_ID":50489,"ELEMENT_SET_NO":999,"REV_AT_EPOCH":21416,"BSTAR":0.00029284,"MEAN_MOTION_DOT":1.28e-06,"MEAN_MOTION_DDOT":0.0},{"OBJECT_NAME":"ONEWEB-0413","OBJECT_ID":"2021-132X","EPOCH":"2026-04-21T08:29:26.210112","MEAN_MOTION":13.18685557,"ECCENTRICITY":0.0002098,"INCLINATION":87.9201,"RA_OF_ASC_NODE":346.7631,"ARG_OF_PERICENTER":82.4361,"MEAN_ANOMALY":277.701,"EPHEMERIS_TYPE":0,"CLASSIFICATION_TYPE":"U","NORAD_CAT_ID":50490,"ELEMENT_SET_NO":999,"REV_AT_EPOCH":21410,"BSTAR":8.177400000000001e-05,"MEAN_MOTION_DOT":4.5e-07,"MEAN_MOTION_DDOT":0.0},{"OBJECT_NAME":"ONEWEB-0414","OBJECT_ID":"2021-132Y","EPOCH":"2026-04-21T09:57:19.361088","MEAN_MOTION":13.18684199,"ECCENTRICITY":0.0001822,"INCLINATION":87.9216,"RA_OF_ASC_NODE":346.7272,"ARG_OF_PERICENTER":86.838,"MEAN_ANOMALY":273.296,"EPHEMERIS_TYPE":0,"CLASSIFICATION_TYPE":"U","NORAD_CAT_ID":50491,"ELEMENT_SET_NO":999,"REV_AT_EPOCH":21414,"BSTAR":0.00038289000000000004,"MEAN_MOTION_DOT":1.64e-06,"MEAN_MOTION_DDOT":0.0},{"OBJECT_NAME":"ONEWEB-0417","OBJECT_ID":"2021-132Z","EPOCH":"2026-04-21T08:19:55.850016","MEAN_MOTION":13.18684813,"ECCENTRICITY":0.0001626,"INCLINATION":87.9204,"RA_OF_ASC_NODE":346.7651,"ARG_OF_PERICENTER":87.2459,"MEAN_ANOMALY":272.8859,"EPHEMERIS_TYPE":0,"CLASSIFICATION_TYPE":"U","NORAD_CAT_ID":50492,"ELEMENT_SET_NO":999,"REV_AT_EPOCH":21411,"BSTAR":4.2174e-05,"MEAN_MOTION_DOT":3e-07,"MEAN_MOTION_DDOT":0.0},{"OBJECT_NAME":"ONEWEB-0418","OBJECT_ID":"2021-132AA","EPOCH":"2026-04-21T08:33:58.364064","MEAN_MOTION":13.18684713,"ECCENTRICITY":0.0001423,"INCLINATION":87.9223,"RA_OF_ASC_NODE":346.757,"ARG_OF_PERICENTER":91.5322,"MEAN_ANOMALY":268.5974,"EPHEMERIS_TYPE":0,"CLASSIFICATION_TYPE":"U","NORAD_CAT_ID":50493,"ELEMENT_SET_NO":999,"REV_AT_EPOCH":21417,"BSTAR":1.0757e-05,"MEAN_MOTION_DOT":1.7e-07,"MEAN_MOTION_DDOT":0.0},{"OBJECT_NAME":"ONEWEB-0419","OBJECT_ID":"2021-132AB","EPOCH":"2026-04-21T09:00:17.654112","MEAN_MOTION":13.18683768,"ECCENTRICITY":0.0001552,"INCLINATION":87.9214,"RA_OF_ASC_NODE":346.7532,"ARG_OF_PERICENTER":79.556,"MEAN_ANOMALY":280.5747,"EPHEMERIS_TYPE":0,"CLASSIFICATION_TYPE":"U","NORAD_CAT_ID":50494,"ELEMENT_SET_NO":999,"REV_AT_EPOCH":21409,"BSTAR":7.6229e-05,"MEAN_MOTION_DOT":4.3e-07,"MEAN_MOTION_DDOT":0.0},{"OBJECT_NAME":"ONEWEB-0420","OBJECT_ID":"2021-132AC","EPOCH":"2026-04-21T08:10:25.129632","MEAN_MOTION":13.18684076,"ECCENTRICITY":0.000193,"INCLINATION":87.9208,"RA_OF_ASC_NODE":346.7684,"ARG_OF_PERICENTER":77.8207,"MEAN_ANOMALY":282.3141,"EPHEMERIS_TYPE":0,"CLASSIFICATION_TYPE":"U","NORAD_CAT_ID":50495,"ELEMENT_SET_NO":999,"REV_AT_EPOCH":21408,"BSTAR":0.00048182000000000005,"MEAN_MOTION_DOT":2.03e-06,"MEAN_MOTION_DDOT":0.0},{"OBJECT_NAME":"ONEWEB-0421","OBJECT_ID":"2021-132AD","EPOCH":"2026-04-21T09:50:12.120864","MEAN_MOTION":13.18685733,"ECCENTRICITY":0.0001948,"INCLINATION":87.9209,"RA_OF_ASC_NODE":346.7496,"ARG_OF_PERICENTER":92.5156,"MEAN_ANOMALY":267.6199,"EPHEMERIS_TYPE":0,"CLASSIFICATION_TYPE":"U","NORAD_CAT_ID":50496,"ELEMENT_SET_NO":999,"REV_AT_EPOCH":21413,"BSTAR":-0.00013289,"MEAN_MOTION_DOT":-3.9e-07,"MEAN_MOTION_DDOT":0.0},{"OBJECT_NAME":"ONEWEB-0424","OBJECT_ID":"2021-132AE","EPOCH":"2026-04-21T08:53:10.971168","MEAN_MOTION":13.18685357,"ECCENTRICITY":0.0001556,"INCLINATION":87.9216,"RA_OF_ASC_NODE":346.7533,"ARG_OF_PERICENTER":74.0911,"MEAN_ANOMALY":286.0392,"EPHEMERIS_TYPE":0,"CLASSIFICATION_TYPE":"U","NORAD_CAT_ID":50497,"ELEMENT_SET_NO":999,"REV_AT_EPOCH":21415,"BSTAR":5.3574e-05,"MEAN_MOTION_DOT":3.4e-07,"MEAN_MOTION_DDOT":0.0},{"OBJECT_NAME":"ONEWEB-0426","OBJECT_ID":"2021-132AF","EPOCH":"2026-04-21T09:45:22.362048","MEAN_MOTION":13.18690455,"ECCENTRICITY":0.0001805,"INCLINATION":87.921,"RA_OF_ASC_NODE":346.7381,"ARG_OF_PERICENTER":106.3418,"MEAN_ANOMALY":253.7912,"EPHEMERIS_TYPE":0,"CLASSIFICATION_TYPE":"U","NORAD_CAT_ID":50498,"ELEMENT_SET_NO":999,"REV_AT_EPOCH":21410,"BSTAR":-8.1567e-05,"MEAN_MOTION_DOT":-1.9e-07,"MEAN_MOTION_DDOT":0.0},{"OBJECT_NAME":"ONEWEB-0427","OBJECT_ID":"2021-132AG","EPOCH":"2026-04-21T08:50:48.496704","MEAN_MOTION":13.18684616,"ECCENTRICITY":0.0001597,"INCLINATION":87.9215,"RA_OF_ASC_NODE":346.7327,"ARG_OF_PERICENTER":88.2378,"MEAN_ANOMALY":271.8937,"EPHEMERIS_TYPE":0,"CLASSIFICATION_TYPE":"U","NORAD_CAT_ID":50499,"ELEMENT_SET_NO":999,"REV_AT_EPOCH":21412,"BSTAR":0.00017010000000000001,"MEAN_MOTION_DOT":8e-07,"MEAN_MOTION_DDOT":0.0},{"OBJECT_NAME":"ONEWEB-0429","OBJECT_ID":"2021-132AH","EPOCH":"2026-04-21T08:31:48.739008","MEAN_MOTION":13.18686722,"ECCENTRICITY":0.0001884,"INCLINATION":87.921,"RA_OF_ASC_NODE":346.7646,"ARG_OF_PERICENTER":79.8215,"MEAN_ANOMALY":280.3129,"EPHEMERIS_TYPE":0,"CLASSIFICATION_TYPE":"U","NORAD_CAT_ID":50500,"ELEMENT_SET_NO":999,"REV_AT_EPOCH":21409,"BSTAR":4.9857e-05,"MEAN_MOTION_DOT":3.3e-07,"MEAN_MOTION_DDOT":0.0}]